[
{"lat":"42.2042586","lon":"-72.6245344","addr:country":"US","addr:county":"Hampden County","addr:state":"Massachusetts","ele":"58","gnis:Class":"Populated Place","gnis:County":"Hampden","gnis:County_num":"013","gnis:id":"609059","gnis:ST_alpha":"MA","gnis:ST_num":"25","import_uuid":"bb7269ee-502a-5391-8056-e3ce0e66489c","name":"Oakdale","place":"hamlet"},
{"lat":"42.1750924","lon":"-72.6328679","addr:country":"US","addr:county":"Hampden County","addr:state":"Massachusetts","ele":"49","gnis:Class":"Populated Place","gnis:County":"Hampden","gnis:County_num":"013","gnis:id":"608757","gnis:ST_alpha":"MA","gnis:ST_num":"25","import_uuid":"bb7269ee-502a-5391-8056-e3ce0e66489c","name":"Ingleside","place":"hamlet"},
{"lat":"42.1959254","lon":"-72.6245344","addr:country":"US","addr:county":"Hampden County","addr:state":"Massachusetts","ele":"78","gnis:Class":"Populated Place","gnis:County":"Hampden","gnis:County_num":"013","gnis:id":"609000","gnis:ST_alpha":"MA","gnis:ST_num":"25","import_uuid":"bb7269ee-502a-5391-8056-e3ce0e66489c","name":"Elmwood","place":"hamlet"},
{"lat":"42.219536","lon":"-72.6245344","addr:country":"US","addr:county":"Hampden County","addr:state":"Massachusetts","ele":"72","gnis:Class":"Populated Place","gnis:County":"Hampden","gnis:County_num":"013","gnis:id":"609019","gnis:ST_alpha":"MA","gnis:ST_num":"25","import_uuid":"bb7269ee-502a-5391-8056-e3ce0e66489c","name":"Highlands","place":"hamlet"},
{"lat":"42.2042587","lon":"-72.6162009","addr:country":"US","addr:county":"Hampden County","addr:state":"Massachusetts","ele":"58","gnis:Class":"Populated Place","gnis:County":"Hampden","gnis:County_num":"013","gnis:id":"617679","gnis:ST_alpha":"MA","gnis:ST_num":"25","import_uuid":"bb7269ee-502a-5391-8056-e3ce0e66489c","name":"Holyoke","place":"town","population":"39765"},
{"lat":"42.2584242","lon":"-72.6142564","addr:country":"US","addr:county":"Hampden County","addr:state":"Massachusetts","ele":"39","gnis:Class":"Populated Place","gnis:County":"Hampden","gnis:County_num":"013","gnis:id":"609085","gnis:ST_alpha":"MA","gnis:ST_num":"25","import_uuid":"bb7269ee-502a-5391-8056-e3ce0e66489c","name":"Smiths Ferry","place":"hamlet"},
{"lat":"42.2437021","lon":"-72.6314791","addr:country":"US","addr:county":"Hampden County","addr:state":"Massachusetts","ele":"119","gnis:Class":"Populated Place","gnis:County":"Hampden","gnis:County_num":"013","gnis:id":"608772","gnis:ST_alpha":"MA","gnis:ST_num":"25","import_uuid":"bb7269ee-502a-5391-8056-e3ce0e66489c","name":"Mountain Park","place":"hamlet"},
{"lat":"42.1625927","lon":"-72.6328679","addr:country":"US","addr:county":"Hampden County","addr:state":"Massachusetts","ele":"22","gnis:Class":"Populated Place","gnis:County":"Hampden","gnis:County_num":"013","gnis:id":"608715","gnis:ST_alpha":"MA","gnis:ST_num":"25","import_uuid":"bb7269ee-502a-5391-8056-e3ce0e66489c","name":"Brightside","place":"hamlet"},
{"lat":"42.1939806","lon":"-72.6759247","addr:country":"US","addr:county":"Hampden County","addr:state":"Massachusetts","ele":"95","gnis:Class":"Populated Place","gnis:County":"Hampden","gnis:County_num":"013","gnis:id":"608798","gnis:ST_alpha":"MA","gnis:ST_num":"25","import_uuid":"bb7269ee-502a-5391-8056-e3ce0e66489c","name":"Rock Valley","place":"hamlet"},
{"lat":"42.1917589","lon":"-72.6203676","addr:country":"US","addr:county":"Hampden County","addr:state":"Massachusetts","ele":"20","gnis:Class":"Populated Place","gnis:County":"Hampden","gnis:County_num":"013","gnis:id":"609091","gnis:ST_alpha":"MA","gnis:ST_num":"25","import_uuid":"bb7269ee-502a-5391-8056-e3ce0e66489c","name":"Springdale","place":"hamlet"},
{"lat":"42.2223137","lon":"-72.6203676","addr:country":"US","addr:county":"Hampden County","addr:state":"Massachusetts","ele":"70","gnis:Class":"Populated Place","gnis:County":"Hampden","gnis:County_num":"013","gnis:id":"609018","gnis:ST_alpha":"MA","gnis:ST_num":"25","import_uuid":"bb7269ee-502a-5391-8056-e3ce0e66489c","name":"Highland Park","place":"hamlet"},
{"lat":"42.1988824","lon":"-72.6406162","address":"110 Cherry St, Holyoke, MA","amenity":"hospital","attribution":"Office of Geographic and Environmental Information (MassGIS), Commonwealth of Massachusetts Executive Office of Environmental Affairs","massgis:id":"104","name":"Soldiers Home In Holyoke","source_url":"http://mass.gov/mgis/hospitals.htm"},
{"lat":"42.200315","lon":"-72.6275558","address":"575 Beech Street, Holyoke, MA","amenity":"hospital","attribution":"Office of Geographic and Environmental Information (MassGIS), Commonwealth of Massachusetts Executive Office of Environmental Affairs","emergency_room":"yes","massgis:id":"58","name":"Holyoke Hospital","shortname":"Holyoke Hospital","source_url":"http://mass.gov/mgis/hospitals.htm"},
{"lat":"42.1658837","lon":"-72.6339871","address":"1233 Main St, Holyoke, MA","amenity":"hospital","attribution":"Office of Geographic and Environmental Information (MassGIS), Commonwealth of Massachusetts Executive Office of Environmental Affairs","massgis:id":"103","name":"Providence Behavioral Health Hospital","source_url":"http://mass.gov/mgis/hospitals.htm"},
{"lat":"42.2038862","lon":"-72.6083978","address":"138 Appleton St, Holyoke, MA, 01040","amenity":"police","attribution":"Office of Geographic and Environmental Information (MassGIS), Massachusetts Emergency Management Agency","jurisdiction":"Local","name":"Holyoke City Police Dept","source_url":"http://mass.gov/mgis/policestations.htm"},
{"lat":"42.1860549","lon":"-72.6501962","address":"642 Homestead Avenue, Holyoke, MA, 01040","amenity":"fire_station","attribution":"Office of Geographic and Environmental Information (MassGIS), Massachusetts Emergency Management Agency","name":"Holyoke Fire Department","office":"Station 6","source_url":"http://mass.gov/mgis/firestations.htm"},
{"lat":"42.1884306","lon":"-72.6337954","address":"33 Whiting Farms Rd, Holoke, MA, 01040","amenity":"fire_station","attribution":"Office of Geographic and Environmental Information (MassGIS), Massachusetts Emergency Management Agency","name":"Holyoke Fire Department","office":"Station 5","source_url":"http://mass.gov/mgis/firestations.htm"},
{"lat":"42.200962","lon":"-72.6132799","address":"600 High Street, Holyoke, MA, 01040","amenity":"fire_station","attribution":"Office of Geographic and Environmental Information (MassGIS), Massachusetts Emergency Management Agency","name":"Holyoke Fire Department","office":"Headquarters","source_url":"http://mass.gov/mgis/firestations.htm"},
{"lat":"42.2104168","lon":"-72.6304006","address":"1579 North Hampton Street, Holyoke, MA, 01040","amenity":"fire_station","attribution":"Office of Geographic and Environmental Information (MassGIS), Massachusetts Emergency Management Agency","name":"Holyoke Fire Department","office":"Station 3","source_url":"http://mass.gov/mgis/firestations.htm"},
{"lat":"42.2023022","lon":"-72.6004065","address":"216 West Street, Holyoke MA 01040","amenity":"library","attribution":"Office of Geographic and Environmental Information (MassGIS)","name":"Kelly Elementary School Library","office":"Dr. Marcella R. Kelly Elementary School","region":"Western","source_url":"http://mass.gov/mgis/libraries.htm","type":"School"},
{"lat":"42.20391","lon":"-72.61179","address":"335 Maple Street, Holyoke MA 00","amenity":"library","attribution":"Office of Geographic and Environmental Information (MassGIS)","name":"Holyoke Public Library","office":"Holyoke","region":"Western","source_url":"http://mass.gov/mgis/libraries.htm","type":"Public"},
{"lat":"42.2003358","lon":"-72.6230744","address":"500 Beech Street, Holyoke MA 01040","amenity":"library","attribution":"Office of Geographic and Environmental Information (MassGIS)","name":"William R. Peck Library","office":"Holyoke High School","region":"Western","source_url":"http://mass.gov/mgis/libraries.htm","type":"School"},
{"lat":"42.1980627","lon":"-72.6271145","address":"1916 Northampton Street, Holyoke MA 01040","amenity":"library","name":"Dr. Marcella R. Kelly Library","office":"Peck Middle School","region":"Western","source_url":"http://mass.gov/mgis/libraries.htm","type":"School"},
{"lat":"42.1786654","lon":"-72.6302102","address":"1045 Main Street, Holyoke MA 01040","amenity":"library","name":"Library","office":"William J. Dean Technical High School","region":"Western","source_url":"http://mass.gov/mgis/libraries.htm","type":"School"},
{"lat":"42.2251835","lon":"-72.6264719","address":"1 Jefferson Street, Holyoke MA 01040","amenity":"library","attribution":"Office of Geographic and Environmental Information (MassGIS)","name":"Library","office":"En White Elementary School","region":"Western","source_url":"http://mass.gov/mgis/libraries.htm","type":"School"},
{"lat":"42.2006118","lon":"-72.6274917","address":"575 Beech Street, Holyoke MA 00","amenity":"library","attribution":"Office of Geographic and Environmental Information (MassGIS)","name":"Medical Library","office":"Holyoke Hospital","region":"Western","source_url":"http://mass.gov/mgis/libraries.htm","type":"Special-Medical"},
{"lat":"42.1634984","lon":"-72.640772","address":"489 Whitney Avenue, Holyoke MA 01040","amenity":"library","attribution":"Office of Geographic and Environmental Information (MassGIS)","name":"Library","office":"Western Mass. Center For Healthy Communities","region":"Western","source_url":"http://mass.gov/mgis/libraries.htm","type":"Special"},
{"lat":"42.209486","lon":"-72.6073811","address":"25 Maple Street, Holyoke MA 01040","amenity":"school","attribution":"Office of Geographic and Environmental Information (MassGIS)","grades":"PK,K,1,2,3,4,5,6,7,8","massgis:school_id":"01370820","name":"Mater Dolorosa","phone":"413-532-2831","source_url":"http://mass.gov/mgis/schools.htm","type":"Private"},
{"lat":"42.2023023","lon":"-72.6004065","address":"216 West Street, Holyoke MA 01040","amenity":"school","attribution":"Office of Geographic and Environmental Information (MassGIS)","grades":"K,1,2,3,4,5,6,7,8","massgis:school_id":"01370040","name":"Kelly Elem","phone":"413-534-2078","source_url":"http://mass.gov/mgis/schools.htm","type":"Public"},
{"lat":"42.2003358","lon":"-72.6230744","address":"500 Beech Street, Holyoke MA 01040","amenity":"school","attribution":"Office of Geographic and Environmental Information (MassGIS)","grades":"9,10,11,12","massgis:school_id":"01370505","name":"Holyoke High","phone":"413-534-2020","source_url":"http://mass.gov/mgis/schools.htm","type":"Public"},
{"lat":"42.2038462","lon":"-72.6039481","address":"30 Center St., Holyoke MA 01040","amenity":"school","attribution":"Office of Geographic and Environmental Information (MassGIS)","grades":"SP","massgis:school_id":"01370835","name":"River Valley Academy","phone":"413-536-2160","source_url":"http://mass.gov/mgis/schools.htm","type":"Approved Special Education"},
{"lat":"42.184308","lon":"-72.6479306","address":"75 Kane Rd, Holyoke MA 01040","amenity":"school","attribution":"Office of Geographic and Environmental Information (MassGIS)","grades":"K,1,2,3,4,5","massgis:school_id":"01370015","name":"Lt Elmer J McMahon Elem","phone":"413-534-2062","source_url":"http://mass.gov/mgis/schools.htm","type":"Public"},
{"lat":"42.1765132","lon":"-72.6396246","address":"210 Whiting Farms Rd, Holyoke MA 01040","amenity":"school","attribution":"Office of Geographic and Environmental Information (MassGIS)","grades":"K,1,2,3,4,5,6,7,8","massgis:school_id":"01370060","name":"Maurice A Donahue Elementary","phone":"413-534-2069","source_url":"http://mass.gov/mgis/schools.htm","type":"Public"},
{"lat":"42.1961935","lon":"-72.6087347","address":"596 South Bridge Street, Holyoke MA 01040","amenity":"school","grades":"K,1,2,3,4,5","massgis:school_id":"01370025","name":"Morgan Elem","phone":"413-534-2083","source_url":"http://mass.gov/mgis/schools.htm","type":"Public"},
{"lat":"42.2046736","lon":"-72.5954087","address":"70 North Summer Street, Holyoke MA 01040","amenity":"school","attribution":"Office of Geographic and Environmental Information (MassGIS)","grades":"SP","massgis:school_id":"01370825","name":"N.E.A.R.I.","phone":"413-532-1713","source_url":"http://mass.gov/mgis/schools.htm","type":"Approved Special Education"},
{"lat":"42.2021094","lon":"-72.6303755","address":"1810 Northampton Street, Holyoke MA 01040","amenity":"school","attribution":"Office of Geographic and Environmental Information (MassGIS)","grades":"PK,K,1,2,3,4,5,6,7,8","massgis:school_id":"01370815","name":"First Lutheran","phone":"413-532-4272","source_url":"http://mass.gov/mgis/schools.htm","type":"Private"},
{"lat":"42.1786654","lon":"-72.6302102","address":"1045 Main Street, Holyoke MA 01040","amenity":"school","grades":"9,10,11,12","massgis:school_id":"01370605","name":"Wm J Dean Voc Tech High","phone":"413-534-2071","source_url":"http://mass.gov/mgis/schools.htm","type":"Public"},
{"lat":"42.195463","lon":"-72.6320708","address":"21 Westfield Rd, Holyoke MA 01040","amenity":"school","grades":"PK,K,1,2,3,4,5,6,7,8","massgis:school_id":"01370805","name":"Blessed Sacrament","phone":"413-536-2236","source_url":"http://mass.gov/mgis/schools.htm","type":"Private"},
{"lat":"42.2033504","lon":"-72.6186751","address":"165 Sargeant Street, Holyoke MA 01040","amenity":"school","grades":"K,1,2,3,4,5,6,7,8","massgis:school_id":"01370520","name":"Holyoke Alternative Program","phone":"413-534-2014","source_url":"http://mass.gov/mgis/schools.htm","type":"Public"},
{"lat":"42.2030119","lon":"-72.6135849","address":"156 Cabot Street, Holyoke MA 01040","amenity":"school","attribution":"Office of Geographic and Environmental Information (MassGIS)","grades":"K,1,2,3,4,5","massgis:school_id":"01370010","name":"Lawrence Elem","phone":"413-534-2075","source_url":"http://mass.gov/mgis/schools.htm","type":"Public"},
{"lat":"42.1887775","lon":"-72.6237302","address":"15 Papineau Street, Holyoke MA 01040","amenity":"school","grades":"SP","massgis:school_id":"01370840","name":"RFK/EWT School","phone":"413-533-5800","source_url":"http://mass.gov/mgis/schools.htm","type":"Approved Special Education"},
{"lat":"42.2048189","lon":"-72.6114974","address":"317 Maple St., Holyoke MA 01040","amenity":"school","attribution":"Office of Geographic and Environmental Information (MassGIS)","grades":"K,1,2,3,4,5,6,7,8,9,10,11,12","massgis:school_id":"01370887","name":"Springdale Education Center","phone":"413-420-0115","source_url":"http://mass.gov/mgis/schools.htm","type":"Private"},
{"lat":"42.2251835","lon":"-72.6264719","address":"One Jefferson Street, Holyoke MA 01040","amenity":"school","attribution":"Office of Geographic and Environmental Information (MassGIS)","grades":"K,1,2,3,4,5,6,7,8","massgis:school_id":"01370045","name":"E N White Elem","phone":"413-534-2058","source_url":"http://mass.gov/mgis/schools.htm","type":"Public"},
{"lat":"42.1934535","lon":"-72.6305218","address":"2019 Northampton Street, Holyoke MA 01040","amenity":"school","grades":"PK","massgis:school_id":"01370003","name":"Joseph Metcalf Preschool","phone":"413-534-2104","source_url":"http://mass.gov/mgis/schools.htm","type":"Public"},
{"lat":"42.2056287","lon":"-72.6450764","address":"400 Jarvis Avenue, Holyoke MA 01040","amenity":"school","attribution":"Office of Geographic and Environmental Information (MassGIS)","grades":"K,1,2,3,4,5,6,7,8","massgis:school_id":"01370055","name":"Lt Clayre Sullivan Elem","phone":"413-534-2060","source_url":"http://mass.gov/mgis/schools.htm","type":"Public"},
{"lat":"42.1980627","lon":"-72.6271145","address":"1916 Northampton Street, Holyoke MA 01040","amenity":"school","grades":"6,7,8","massgis:school_id":"01370310","name":"Dr Wm R Peck Middle","phone":"413-534-2040","source_url":"http://mass.gov/mgis/schools.htm","type":"Public"},
{"lat":"42.2110554","lon":"-72.63082","address":"1575 Northampton Street, Holyoke MA 01040","amenity":"school","attribution":"Office of Geographic and Environmental Information (MassGIS)","grades":"6,7,8","massgis:school_id":"01370315","name":"John J Lynch Middle","phone":"413-534-2050","source_url":"http://mass.gov/mgis/schools.htm","type":"Public"},
{"lat":"42.2066136","lon":"-72.6074415","address":"536 Dwight St., Holyoke MA 01040","amenity":"townhall","attribution":"Office of Geographic and Environmental Information (MassGIS), Massachusetts Emergency Management Agency (MEMA)","name":"Holyoke City Hall","source_url":"http://mass.gov/mgis/townhalls.htm"},
{"lat":"42.1875923","lon":"-72.6203676","ele":"14","gnis:county_id":"013","gnis:created":"08/27/2002","gnis:feature_id":"601142","gnis:state_id":"25","leisure":"park","name":"Riverside Park"},
{"lat":"42.2117586","lon":"-72.6050895","ele":"44","gnis:county_id":"013","gnis:created":"08/27/2002","gnis:feature_id":"601143","gnis:state_id":"25","leisure":"park","name":"Prospect Park"},
{"lat":"42.200092","lon":"-72.6170342","amenity":"school","ele":"55","gnis:county_id":"013","gnis:created":"08/27/2002","gnis:feature_id":"601145","gnis:state_id":"25","name":"Our Lady of Perpetual Help School"},
{"lat":"42.2103696","lon":"-72.618701","amenity":"place_of_worship","ele":"69","gnis:county_id":"013","gnis:created":"08/27/2002","gnis:feature_id":"601146","gnis:state_id":"25","name":"Holy Cross Church","religion":"christian"},
{"lat":"42.2153695","lon":"-72.6231455","amenity":"school","ele":"79","gnis:county_id":"013","gnis:created":"08/27/2002","gnis:feature_id":"601147","gnis:state_id":"25","name":"Highland School"},
{"lat":"42.2667574","lon":"-72.6162009","ele":"49","gnis:county_id":"013","gnis:created":"08/27/2002","gnis:feature_id":"601149","gnis:state_id":"25","leisure":"park","name":"Mount Tom State Reservation"},
{"lat":"42.2264804","lon":"-72.6203676","ele":"48","gnis:county_id":"013","gnis:created":"08/27/2002","gnis:feature_id":"601157","gnis:state_id":"25","leisure":"park","name":"Jones Park"},
{"lat":"42.1667593","lon":"-72.6384237","amenity":"grave_yard","ele":"50","gnis:county_id":"013","gnis:created":"08/27/2002","gnis:feature_id":"601268","gnis:state_id":"25","name":"Calvary Cemetery"},
{"lat":"42.1875922","lon":"-72.6287012","amenity":"grave_yard","ele":"74","gnis:county_id":"013","gnis:created":"08/27/2002","gnis:feature_id":"601269","gnis:state_id":"25","name":"Calvary Cemetery"},
{"lat":"42.200092","lon":"-72.6253677","amenity":"school","ele":"59","gnis:county_id":"013","gnis:created":"08/27/2002","gnis:feature_id":"601270","gnis:state_id":"25","name":"Holyoke High School"},
{"lat":"42.1820367","lon":"-72.6287012","ele":"35","gnis:county_id":"013","gnis:created":"08/27/2002","gnis:feature_id":"601271","gnis:state_id":"25","leisure":"park","name":"Elmwood Park"},
{"lat":"42.2084251","lon":"-72.6253678","amenity":"grave_yard","ele":"73","gnis:county_id":"013","gnis:created":"08/27/2002","gnis:feature_id":"601272","gnis:state_id":"25","name":"Forestdale Cemetery"},
{"lat":"42.1967587","lon":"-72.6262012","amenity":"school","ele":"75","gnis:county_id":"013","gnis:created":"08/27/2002","gnis:feature_id":"601273","gnis:state_id":"25","name":"Doctor William R Peck School"},
{"lat":"42.1931477","lon":"-72.6306457","amenity":"school","ele":"77","gnis:county_id":"013","gnis:created":"08/27/2002","gnis:feature_id":"601275","gnis:state_id":"25","name":"Metcalf Elementary School"},
{"lat":"42.2020363","lon":"-72.6306457","amenity":"school","ele":"80","gnis:county_id":"013","gnis:created":"08/27/2002","gnis:feature_id":"601277","gnis:state_id":"25","name":"Sholom School"},
{"lat":"42.204814","lon":"-72.6284234","amenity":"school","ele":"76","gnis:county_id":"013","gnis:created":"08/27/2002","gnis:feature_id":"601278","gnis:state_id":"25","name":"Kirtland School"},
{"lat":"42.2070362","lon":"-72.6273123","amenity":"grave_yard","ele":"79","gnis:county_id":"013","gnis:created":"08/27/2002","gnis:feature_id":"601279","gnis:state_id":"25","name":"Saint Jerome Cemetery"},
{"lat":"42.2112028","lon":"-72.631479","amenity":"school","ele":"85","gnis:county_id":"013","gnis:created":"08/27/2002","gnis:feature_id":"601280","gnis:state_id":"25","name":"John J Lynch Middle School"},
{"lat":"42.2334246","lon":"-72.6264789","amenity":"school","ele":"47","gnis:county_id":"013","gnis:created":"08/27/2002","gnis:feature_id":"601281","gnis:state_id":"25","name":"E N White School"},
{"lat":"42.2625907","lon":"-72.631479","ele":"191","gnis:county_id":"013","gnis:created":"08/27/2002","gnis:feature_id":"603878","gnis:state_id":"25","leisure":"park","name":"Mount Tom State Reservation"},
{"lat":"42.1667591","lon":"-72.6678689","ele":"97","gnis:county_id":"013","gnis:created":"08/27/2002","gnis:feature_id":"605016","gnis:state_id":"25","name":"Ashley Pond Dam","waterway":"dam"},
{"lat":"42.1750922","lon":"-72.6695357","ele":"125","gnis:county_id":"013","gnis:created":"08/27/2002","gnis:feature_id":"605035","gnis:state_id":"25","name":"McLean Reservoir Dam","waterway":"dam"},
{"lat":"42.1834254","lon":"-72.6595354","ele":"103","gnis:county_id":"013","gnis:created":"08/27/2002","gnis:feature_id":"605061","gnis:state_id":"25","name":"Clear Pond Dam","waterway":"dam"},
{"lat":"42.185092","lon":"-72.6612021","ele":"113","gnis:county_id":"013","gnis:created":"08/27/2002","gnis:feature_id":"605063","gnis:state_id":"25","name":"Clear Pond West Dike","waterway":"dam"},
{"lat":"42.2400911","lon":"-72.6345347","ele":"116","gnis:county_id":"013","gnis:created":"08/27/2002","gnis:feature_id":"605177","gnis:state_id":"25","name":"Whiting Street Pond Dam","waterway":"dam"},
{"lat":"42.268424","lon":"-72.6145342","ele":"49","gnis:county_id":"013","gnis:created":"08/27/2002","gnis:feature_id":"605241","gnis:state_id":"25","name":"Lake Bray Dam","waterway":"dam"},
{"lat":"42.2092586","lon":"-72.6078673","amenity":"school","ele":"47","gnis:county_id":"013","gnis:created":"01/01/1992","gnis:feature_id":"606718","gnis:state_id":"25","name":"Whiting School"},
{"lat":"42.202592","lon":"-72.6139785","amenity":"school","ele":"47","gnis:county_id":"013","gnis:created":"01/01/1992","gnis:feature_id":"606719","gnis:state_id":"25","name":"Lawrence Elementary School"},
{"lat":"42.2056477","lon":"-72.5995337","amenity":"school","ele":"30","gnis:county_id":"013","gnis:created":"01/01/1992","gnis:feature_id":"606720","gnis:state_id":"25","name":"Rosary School"},
{"lat":"42.201481","lon":"-72.6006449","amenity":"school","ele":"30","gnis:county_id":"013","gnis:created":"01/01/1992","gnis:feature_id":"606721","gnis:state_id":"25","name":"Kelly Elementary School"},
{"lat":"42.1884255","lon":"-72.6234233","amenity":"school","ele":"20","gnis:county_id":"013","gnis:created":"01/01/1992","gnis:feature_id":"606722","gnis:state_id":"25","name":"Springdale School"},
{"lat":"42.2056473","lon":"-72.6453683","amenity":"school","ele":"129","gnis:county_id":"013","gnis:created":"01/01/1992","gnis:feature_id":"606821","gnis:state_id":"25","name":"Lieutenant Clare Sullivan School"},
{"lat":"42.2070358","lon":"-72.6773137","amenity":"grave_yard","ele":"86","gnis:county_id":"013","gnis:created":"01/01/1992","gnis:feature_id":"606823","gnis:state_id":"25","name":"Forestdale Cemetery West"},
{"lat":"42.1667591","lon":"-72.6678689","ele":"97","gnis:county_id":"013","gnis:created":"02/24/1974","gnis:feature_id":"608699","gnis:state_id":"25","landuse":"reservoir","name":"Ashley Pond"},
{"lat":"42.1625926","lon":"-72.6528685","ele":"114","gnis:county_id":"013","gnis:created":"02/24/1974","gnis:feature_id":"608711","gnis:state_id":"25","name":"Bradley Mountain","natural":"peak"},
{"lat":"42.2417578","lon":"-72.6287013","ele":"128","gnis:county_id":"013","gnis:created":"02/24/1974","gnis:feature_id":"608722","gnis:state_id":"25","name":"Cedar Knob","natural":"peak"},
{"lat":"42.2131472","lon":"-72.6389792","ele":"169","gnis:county_id":"013","gnis:created":"02/24/1974","gnis:feature_id":"608728","gnis:state_id":"25","name":"Crafts Hill","natural":"peak"},
{"lat":"42.253424","lon":"-72.6439794","ele":"333","gnis:county_id":"013","gnis:created":"02/24/1974","gnis:feature_id":"608733","gnis:state_id":"25","name":"Deadtop","natural":"peak"},
{"lat":"42.2775905","lon":"-72.6253677","ele":"250","gnis:county_id":"013","gnis:created":"02/24/1974","gnis:feature_id":"608736","gnis:state_id":"25","name":"Dry Knoll","natural":"peak"},
{"lat":"42.2723127","lon":"-72.6312013","ele":"252","gnis:county_id":"013","gnis:created":"02/24/1974","gnis:feature_id":"608746","gnis:state_id":"25","name":"Goat Peak","natural":"peak"},
{"lat":"42.248702","lon":"-72.6309236","ele":"186","gnis:county_id":"013","gnis:created":"02/24/1974","gnis:feature_id":"608760","gnis:state_id":"25","name":"Little Mountain","natural":"peak"},
{"lat":"42.2534241","lon":"-72.6370348","ele":"217","gnis:county_id":"013","gnis:created":"02/24/1974","gnis:feature_id":"608773","gnis:state_id":"25","landuse":"reservoir","name":"Mountain Park Reservoir"},
{"lat":"42.2417576","lon":"-72.6481462","ele":"363","gnis:county_id":"013","gnis:created":"02/24/1974","gnis:feature_id":"608812","gnis:state_id":"25","name":"Mount Tom","natural":"peak"},
{"lat":"42.2598128","lon":"-72.6403682","ele":"305","gnis:county_id":"013","gnis:created":"02/24/1974","gnis:feature_id":"608824","gnis:state_id":"25","name":"Whiting Peak","natural":"peak"},
{"lat":"42.2398133","lon":"-72.6348125","ele":"116","gnis:county_id":"013","gnis:created":"02/24/1974","gnis:feature_id":"608825","gnis:state_id":"25","landuse":"reservoir","name":"Whiting Street Reservoir"},
{"lat":"42.2681463","lon":"-72.6162009","ele":"50","gnis:county_id":"013","gnis:created":"02/24/1974","gnis:feature_id":"608980","gnis:state_id":"25","landuse":"reservoir","name":"Lake Bray"},
{"lat":"42.2731463","lon":"-72.6064783","ele":"53","gnis:county_id":"013","gnis:created":"02/24/1974","gnis:feature_id":"609028","gnis:state_id":"25","landuse":"reservoir","name":"Kennedy Pond"},
{"lat":"42.2806461","lon":"-72.6203676","ele":"231","gnis:county_id":"013","gnis:created":"02/24/1974","gnis:feature_id":"609053","gnis:state_id":"25","name":"Mount Nonotuck","natural":"peak"},
{"lat":"42.2125919","lon":"-72.6023116","ele":"18","gnis:county_id":"015","gnis:created":"02/24/1974","gnis:feature_id":"617143","gnis:state_id":"25","name":"Holyoke Dam","waterway":"dam"},
{"lat":"42.1834254","lon":"-72.6595354","ele":"103","gnis:county_id":"013","gnis:created":"02/24/1974","gnis:feature_id":"617932","gnis:state_id":"25","landuse":"reservoir","name":"Clear Pond"},
{"lat":"42.1756479","lon":"-72.6492573","ele":"92","gnis:county_id":"013","gnis:created":"02/24/1974","gnis:feature_id":"617933","gnis:state_id":"25","landuse":"reservoir","name":"Ashley Cutoff"},
{"lat":"42.1814811","lon":"-72.6487018","ele":"90","gnis:county_id":"013","gnis:created":"02/24/1974","gnis:feature_id":"617934","gnis:state_id":"25","landuse":"reservoir","name":"Wright Cutoff"},
{"lat":"42.1750922","lon":"-72.6695357","ele":"125","gnis:county_id":"013","gnis:created":"02/24/1974","gnis:feature_id":"617935","gnis:state_id":"25","landuse":"reservoir","name":"McLean Reservoir"},
{"lat":"42.1687035","lon":"-72.6589798","ele":"96","gnis:county_id":"013","gnis:created":"02/24/1974","gnis:feature_id":"617936","gnis:state_id":"25","landuse":"reservoir","name":"Connor Reservoir"},
{"lat":"42.1859254","lon":"-72.6514796","ele":"103","gnis:county_id":"013","gnis:created":"02/24/1974","gnis:feature_id":"617937","gnis:state_id":"25","landuse":"reservoir","name":"Cedar Pond"},
{"lat":"42.1995359","lon":"-72.6837028","ele":"75","gnis:county_id":"015","gnis:created":"08/01/1994","gnis:feature_id":"619615","gnis:state_id":"25","man_made":"tower","name":"WHYN-AM (Springfield)"},
{"lat":"42.198703","lon":"-72.6403682","ele":"142","gnis:county_id":"015","gnis:created":"08/01/1994","gnis:feature_id":"619673","gnis:state_id":"25","man_made":"tower","name":"WCCH-FM (Holyoke)"},
{"lat":"42.241202","lon":"-72.648424","ele":"354","gnis:county_id":"015","gnis:created":"08/01/1994","gnis:feature_id":"619700","gnis:state_id":"25","man_made":"tower","name":"WHYN-FM (Springfield)"},
{"lat":"42.2417576","lon":"-72.6487018","ele":"360","gnis:county_id":"015","gnis:created":"08/01/1994","gnis:feature_id":"619733","gnis:state_id":"25","man_made":"tower","name":"WGGB-TV (Springfield)"},
{"lat":"42.2417576","lon":"-72.6478684","ele":"355","gnis:county_id":"015","gnis:created":"08/01/1994","gnis:feature_id":"619735","gnis:state_id":"25","man_made":"tower","name":"WGBY-TV (Springfield)"},
{"lat":"42.2017587","lon":"-72.6167564","amenity":"school","ele":"58","gnis:county_id":"013","gnis:created":"01/16/2003","gnis:feature_id":"1977876","gnis:state_id":"25","name":"Anne McHugh Primary School"},
{"lat":"42.1998143","lon":"-72.6087007","amenity":"place_of_worship","ele":"24","gnis:county_id":"013","gnis:created":"01/16/2003","gnis:feature_id":"1977877","gnis:state_id":"25","name":"Apostolic Christian Church","religion":"christian"},
{"lat":"42.2112029","lon":"-72.6131452","ele":"47","gnis:county_id":"013","gnis:created":"01/16/2003","gnis:feature_id":"1977883","gnis:state_id":"25","leisure":"park","name":"Avery Field"},
{"lat":"42.2020364","lon":"-72.6170342","amenity":"place_of_worship","denomination":"baptist","ele":"60","gnis:county_id":"013","gnis:created":"01/16/2003","gnis:feature_id":"1977899","gnis:state_id":"25","name":"Bethlehem Baptist Church","religion":"christian"},
{"lat":"42.1956476","lon":"-72.6309235","amenity":"place_of_worship","ele":"79","gnis:county_id":"013","gnis:created":"01/16/2003","gnis:feature_id":"1977911","gnis:state_id":"25","name":"Blessed Sacrament Church","religion":"christian"},
{"lat":"42.2056476","lon":"-72.6078673","amenity":"place_of_worship","ele":"38","gnis:county_id":"013","gnis:created":"01/16/2003","gnis:feature_id":"1977967","gnis:state_id":"25","name":"Christian Celebration Center","religion":"christian"},
{"lat":"42.2000921","lon":"-72.6078673","amenity":"place_of_worship","denomination":"pentecostal","ele":"25","gnis:county_id":"013","gnis:created":"01/16/2003","gnis:feature_id":"1977972","gnis:state_id":"25","name":"Christian Pentecostal Church","religion":"christian"},
{"lat":"42.2070363","lon":"-72.6131452","amenity":"place_of_worship","ele":"48","gnis:county_id":"013","gnis:created":"01/16/2003","gnis:feature_id":"1977977","gnis:state_id":"25","name":"Church of God","religion":"christian"},
{"lat":"42.2025921","lon":"-72.601756","ele":"38","gnis:county_id":"013","gnis:created":"01/16/2003","gnis:feature_id":"1978007","gnis:state_id":"25","leisure":"park","name":"Deroy Park"},
{"lat":"42.1992588","lon":"-72.6064783","amenity":"place_of_worship","ele":"25","gnis:county_id":"013","gnis:created":"01/16/2003","gnis:feature_id":"1978024","gnis:state_id":"25","name":"Ebenezer Assembly of God Church","religion":"christian"},
{"lat":"42.2114808","lon":"-72.6039783","ele":"37","gnis:county_id":"013","gnis:created":"01/16/2003","gnis:feature_id":"1978054","gnis:state_id":"25","leisure":"park","name":"Feldman Park"},
{"lat":"42.195092","lon":"-72.6298124","amenity":"place_of_worship","denomination":"baptist","ele":"77","gnis:county_id":"013","gnis:created":"01/16/2003","gnis:feature_id":"1978060","gnis:state_id":"25","name":"First Baptist Church","religion":"christian"},
{"lat":"42.2014808","lon":"-72.6309235","amenity":"place_of_worship","denomination":"lutheran","ele":"79","gnis:county_id":"013","gnis:created":"01/16/2003","gnis:feature_id":"1978076","gnis:state_id":"25","name":"First Lutheran Church","religion":"christian"},
{"lat":"42.2014808","lon":"-72.6309235","amenity":"school","ele":"79","gnis:county_id":"013","gnis:created":"01/16/2003","gnis:feature_id":"1978077","gnis:state_id":"25","name":"First Lutheran School"},
{"lat":"42.2006472","lon":"-72.6787026","ele":"89","gnis:county_id":"013","gnis:created":"01/16/2003","gnis:feature_id":"1978113","gnis:state_id":"25","leisure":"park","name":"Gloutak Park"},
{"lat":"42.2081475","lon":"-72.6084229","ele":"48","gnis:county_id":"013","gnis:created":"01/16/2003","gnis:feature_id":"1978141","gnis:state_id":"25","leisure":"park","name":"Hampden Park"},
{"lat":"42.2095363","lon":"-72.6073118","amenity":"school","ele":"46","gnis:county_id":"013","gnis:created":"01/16/2003","gnis:feature_id":"1978168","gnis:state_id":"25","name":"Holyoke Catholic High School"},
{"lat":"42.205092","lon":"-72.6073118","ele":"33","gnis:county_id":"013","gnis:created":"01/16/2003","gnis:feature_id":"1978174","gnis:state_id":"25","leisure":"park","name":"Holyoke Heritage State Park"},
{"lat":"42.2081475","lon":"-72.6103673","amenity":"post_office","ele":"49","gnis:county_id":"013","gnis:created":"01/16/2003","gnis:feature_id":"1978178","gnis:state_id":"25","name":"Holyoke Post Office"},
{"lat":"42.2031477","lon":"-72.6048117","amenity":"school","ele":"25","gnis:county_id":"013","gnis:created":"01/16/2003","gnis:feature_id":"1978180","gnis:state_id":"25","name":"Holyoke Street School"},
{"lat":"42.223147","lon":"-72.6356459","ele":"119","gnis:county_id":"013","gnis:created":"01/16/2003","gnis:feature_id":"1978202","gnis:state_id":"25","leisure":"park","name":"Kenny Park"},
{"lat":"42.2009253","lon":"-72.621201","ele":"54","gnis:county_id":"013","gnis:created":"01/16/2003","gnis:feature_id":"1978243","gnis:state_id":"25","leisure":"park","name":"MacKenzie Field"},
{"lat":"42.2034252","lon":"-72.6189787","amenity":"school","ele":"62","gnis:county_id":"013","gnis:created":"01/16/2003","gnis:feature_id":"1978245","gnis:state_id":"25","name":"Magnet Middle School for the Arts"},
{"lat":"42.211203","lon":"-72.6053672","amenity":"school","ele":"45","gnis:county_id":"013","gnis:created":"01/16/2003","gnis:feature_id":"1978263","gnis:state_id":"25","name":"Mater Dolorosa School"},
{"lat":"42.2017588","lon":"-72.5981448","ele":"25","gnis:county_id":"013","gnis:created":"01/16/2003","gnis:feature_id":"1978265","gnis:state_id":"25","leisure":"park","name":"McNally Field"},
{"lat":"42.2045364","lon":"-72.6031449","amenity":"place_of_worship","ele":"26","gnis:county_id":"013","gnis:created":"01/16/2003","gnis:feature_id":"1978280","gnis:state_id":"25","name":"Missionary Church","religion":"christian"},
{"lat":"42.212314","lon":"-72.6120341","ele":"43","gnis:county_id":"013","gnis:created":"01/16/2003","gnis:feature_id":"1978281","gnis:state_id":"25","leisure":"park","name":"Mitchell Field"},
{"lat":"42.1967589","lon":"-72.6067561","amenity":"school","ele":"22","gnis:county_id":"013","gnis:created":"01/16/2003","gnis:feature_id":"1978293","gnis:state_id":"25","name":"Morgan Elementary School"},
{"lat":"42.1964805","lon":"-72.6853694","ele":"87","gnis:county_id":"013","gnis:created":"01/16/2003","gnis:feature_id":"1978347","gnis:state_id":"25","leisure":"park","name":"Pilsuoski Park"},
{"lat":"42.202592","lon":"-72.6112008","amenity":"place_of_worship","ele":"38","gnis:county_id":"013","gnis:created":"01/16/2003","gnis:feature_id":"1978357","gnis:state_id":"25","name":"Presbyterian First Church","religion":"christian"},
{"lat":"42.1998142","lon":"-72.6203676","ele":"55","gnis:county_id":"013","gnis:created":"01/16/2003","gnis:feature_id":"1978372","gnis:state_id":"25","leisure":"park","name":"Roberts Field"},
{"lat":"42.1992583","lon":"-72.6798138","amenity":"grave_yard","ele":"84","gnis:county_id":"013","gnis:created":"01/16/2003","gnis:feature_id":"1978375","gnis:state_id":"25","name":"Rock Valley Cemetery"},
{"lat":"42.2092585","lon":"-72.617312","amenity":"place_of_worship","ele":"61","gnis:county_id":"013","gnis:created":"01/16/2003","gnis:feature_id":"1978420","gnis:state_id":"25","name":"Saint Pauls Episcopal Church","religion":"christian"},
{"lat":"42.2189804","lon":"-72.6403682","amenity":"place_of_worship","denomination":"lutheran","ele":"141","gnis:county_id":"013","gnis:created":"01/16/2003","gnis:feature_id":"1978425","gnis:state_id":"25","name":"Saint Peters Lutheran Church","religion":"christian"},
{"lat":"42.2042587","lon":"-72.6092562","amenity":"place_of_worship","ele":"38","gnis:county_id":"013","gnis:created":"01/16/2003","gnis:feature_id":"1978430","gnis:state_id":"25","name":"Salvation Army"},
{"lat":"42.212036","lon":"-72.6378681","ele":"162","gnis:county_id":"013","gnis:created":"01/16/2003","gnis:feature_id":"1978435","gnis:state_id":"25","man_made":"tower","name":"Scott Tower"},
{"lat":"42.2064809","lon":"-72.6067561","amenity":"place_of_worship","ele":"38","gnis:county_id":"013","gnis:created":"01/16/2003","gnis:feature_id":"1978517","gnis:state_id":"25","name":"True Deliverance Church of God","religion":"christian"},
{"lat":"42.2048142","lon":"-72.6103673","amenity":"place_of_worship","ele":"43","gnis:county_id":"013","gnis:created":"01/16/2003","gnis:feature_id":"1978527","gnis:state_id":"25","name":"United Congregational Church","religion":"christian"},
{"lat":"42.1975922","lon":"-72.605645","ele":"23","gnis:county_id":"013","gnis:created":"01/16/2003","gnis:feature_id":"1978533","gnis:state_id":"25","leisure":"park","name":"Valley Arena Park"},
{"lat":"42.2037032","lon":"-72.6000894","ele":"33","gnis:county_id":"013","gnis:created":"01/16/2003","gnis:feature_id":"1978548","gnis:state_id":"25","leisure":"park","name":"Ward 1 Playground"},
{"lat":"42.202314","lon":"-72.6420349","ele":"117","gnis:county_id":"013","gnis:created":"01/16/2003","gnis:feature_id":"1978600","gnis:state_id":"25","leisure":"park","name":"Wyatt Harper Park"},
{"lat":"42.1946691","lon":"-72.6524393","addr:state":"MA","amenity":"library","ele":"117","gnis:county_name":"Hampden","gnis:feature_id":"1978171","gnis:import_uuid":"57871b70-0100-4405-bb30-88b2e001a944","gnis:reviewed":"no","name":"Holyoke Community College Library"},
{"lat":"42.2039809","lon":"-72.6128674","addr:state":"MA","amenity":"library","ele":"46","gnis:county_name":"Hampden","gnis:feature_id":"1978179","gnis:import_uuid":"57871b70-0100-4405-bb30-88b2e001a944","gnis:reviewed":"no","name":"Holyoke Public Library"},
{"lat":"42.2053697","lon":"-72.617312","addr:state":"MA","ele":"65","gnis:county_name":"Hampden","gnis:feature_id":"1978595","gnis:import_uuid":"57871b70-0100-4405-bb30-88b2e001a944","gnis:reviewed":"no","name":"Wistariahurst Museum","tourism":"museum"},
{"lat":"42.2078697","lon":"-72.6156453","addr:state":"MA","ele":"54","gnis:county_name":"Hampden","gnis:feature_id":"603870","gnis:import_uuid":"57871b70-0100-4405-bb30-88b2e001a944","gnis:reviewed":"no","leisure":"sports_centre","name":"YMCA"},
{"lat":"42.1749115","lon":"-72.6401122","name":"CVS","shop":"variety_store"},
{"lat":"42.1746351","lon":"-72.6400993","name":"CVS","shop":"variety_store"},
{"lat":"42.1745871","lon":"-72.6400293","name":"CVS","shop":"variety_store"},
{"lat":"42.1745833","lon":"-72.6394544","name":"CVS","shop":"variety_store"},
{"lat":"42.1747886","lon":"-72.6394596","name":"CVS","shop":"variety_store"},
{"lat":"42.1747867","lon":"-72.6395062","name":"CVS","shop":"variety_store"},
{"lat":"42.1748673","lon":"-72.6395114","name":"CVS","shop":"variety_store"},
{"lat":"42.1748654","lon":"-72.639558","name":"CVS","shop":"variety_store"},
{"lat":"42.1749153","lon":"-72.6395606","name":"CVS","shop":"variety_store"},
{"lat":"42.2728192","lon":"-72.6050081","amenity":"restaurant","name":"Delaney House"},
{"lat":"42.2725969","lon":"-72.6049222","name":"Country Inn and Suites","tourism":"hotel"},
{"lat":"42.205387","lon":"-72.610809","attribution":"massDOT","bus":"yes","highway":"bus_stop","name":"APPLETON / MAPLE","network":"PVTA","public_transport":"stop_position","ref":"404"},
{"lat":"42.208782","lon":"-72.617035","attribution":"massDOT","bus":"yes","highway":"bus_stop","name":"APPLETON / OAK","network":"PVTA","public_transport":"stop_position","ref":"381"},
{"lat":"42.210194","lon":"-72.619652","attribution":"massDOT","bus":"yes","highway":"bus_stop","name":"APPLETON / POPLAR","network":"PVTA","public_transport":"stop_position","ref":"373"},
{"lat":"42.206947","lon":"-72.613594","attribution":"massDOT","bus":"yes","highway":"bus_stop","name":"APPLETON / WALNUT","network":"PVTA","public_transport":"stop_position","ref":"390"},
{"lat":"42.200153","lon":"-72.62587","attribution":"massDOT","bus":"yes","highway":"bus_stop","name":"BEECH / BEECH","network":"PVTA","public_transport":"stop_position","ref":"461"},
{"lat":"42.20219","lon":"-72.620888","attribution":"massDOT","bus":"yes","highway":"bus_stop","name":"BEECH / FRANKLIN","network":"PVTA","public_transport":"stop_position","ref":"440"},
{"lat":"42.202377","lon":"-72.604691","attribution":"massDOT","bus":"yes","highway":"bus_stop","name":"BEECH / FRANKLIN","network":"PVTA","public_transport":"stop_position","ref":"436"},
{"lat":"42.199249","lon":"-72.6287","attribution":"massDOT","bus":"yes","highway":"bus_stop","name":"BEECH / HOSPITAL","network":"PVTA","public_transport":"stop_position","ref":"467"},
{"lat":"42.199448","lon":"-72.628159","attribution":"massDOT","bus":"yes","highway":"bus_stop","name":"BEECH / HOSPITAL","network":"PVTA","public_transport":"stop_position","ref":"464"},
{"lat":"42.199154","lon":"-72.630562","attribution":"massDOT","bus":"yes","highway":"bus_stop","name":"BEECH / NORTHAMPTON","network":"PVTA","public_transport":"stop_position","ref":"468"},
{"lat":"42.201412","lon":"-72.622993","attribution":"massDOT","bus":"yes","highway":"bus_stop","name":"Beech and Linden","network":"PVTA","public_transport":"stop_position","ref":"448"},
{"lat":"42.202076","lon":"-72.610954","attribution":"massDOT","bus":"yes","highway":"bus_stop","name":"CABOT / BOND","network":"PVTA","public_transport":"stop_position","ref":"446"},
{"lat":"42.202335","lon":"-72.611244","attribution":"massDOT","bus":"yes","highway":"bus_stop","name":"CABOT / BOND","network":"PVTA","public_transport":"stop_position","ref":"444"},
{"lat":"42.198338","lon":"-72.604752","attribution":"massDOT","bus":"yes","highway":"bus_stop","name":"CABOT / BRIDGE","network":"PVTA","public_transport":"stop_position","ref":"477"},
{"lat":"42.200512","lon":"-72.60804","attribution":"massDOT","bus":"yes","highway":"bus_stop","name":"CABOT / CABOT","network":"PVTA","public_transport":"stop_position","ref":"457"},
{"lat":"42.197361","lon":"-72.6036","attribution":"massDOT","bus":"yes","highway":"bus_stop","name":"CABOT / CANAL","network":"PVTA","public_transport":"stop_position","ref":"484"},
{"lat":"42.19968","lon":"-72.606445","attribution":"massDOT","bus":"yes","highway":"bus_stop","name":"CABOT / CLEMENTE","network":"PVTA","public_transport":"stop_position","ref":"463"},
{"lat":"42.202793","lon":"-72.612312","attribution":"massDOT","bus":"yes","highway":"bus_stop","name":"CABOT / HIGH","network":"PVTA","public_transport":"stop_position","ref":"431"},
{"lat":"42.200035","lon":"-72.607193","attribution":"massDOT","bus":"yes","highway":"bus_stop","name":"CABOT / MAIN","network":"PVTA","public_transport":"stop_position","ref":"462"},
{"lat":"42.198822","lon":"-72.633102","attribution":"massDOT","bus":"yes","highway":"bus_stop","name":"CHERRY / BAY STATE","network":"PVTA","public_transport":"stop_position","ref":"474"},
{"lat":"42.19902","lon":"-72.632019","attribution":"massDOT","bus":"yes","highway":"bus_stop","name":"CHERRY / BAY STATE","network":"PVTA","public_transport":"stop_position","ref":"471"},
{"lat":"42.203022","lon":"-72.645523","attribution":"massDOT","bus":"yes","highway":"bus_stop","name":"CHERRY / DALE","network":"PVTA","public_transport":"stop_position","ref":"425"},
{"lat":"42.198978","lon":"-72.633659","attribution":"massDOT","bus":"yes","highway":"bus_stop","name":"CHERRY / HILLSIDE","network":"PVTA","public_transport":"stop_position","ref":"472"},
{"lat":"42.202927","lon":"-72.645241","attribution":"massDOT","bus":"yes","highway":"bus_stop","name":"CHERRY / MAPLE CREST","network":"PVTA","public_transport":"stop_position","ref":"427"},
{"lat":"42.210484","lon":"-72.606987","attribution":"massDOT","bus":"yes","highway":"bus_stop","name":"CHESTNUT / LYMAN","network":"PVTA","public_transport":"stop_position","ref":"372"},
{"lat":"42.201092","lon":"-72.642357","attribution":"massDOT","bus":"yes","highway":"bus_stop","name":"Cherry and Homestead","network":"PVTA","public_transport":"stop_position","ref":"11115"},
{"lat":"42.201111","lon":"-72.641655","attribution":"massDOT","bus":"yes","highway":"bus_stop","name":"Cherry and Homestead","network":"PVTA","public_transport":"stop_position","ref":"451"},
{"lat":"42.201645","lon":"-72.643456","attribution":"massDOT","bus":"yes","highway":"bus_stop","name":"Cherry and Leary","network":"PVTA","public_transport":"stop_position","ref":"443"},
{"lat":"42.206089","lon":"-72.60582","attribution":"massDOT","bus":"yes","highway":"bus_stop","name":"DWIGHT / FRONT","network":"PVTA","public_transport":"stop_position","ref":"394"},
{"lat":"42.210728","lon":"-72.629265","attribution":"massDOT","bus":"yes","highway":"bus_stop","name":"DWIGHT / LYNWOOD","network":"PVTA","public_transport":"stop_position","ref":"369"},
{"lat":"42.210915","lon":"-72.622917","attribution":"massDOT","bus":"yes","highway":"bus_stop","name":"DWIGHT / NONOTUCK","network":"PVTA","public_transport":"stop_position","ref":"367"},
{"lat":"42.210838","lon":"-72.625557","attribution":"massDOT","bus":"yes","highway":"bus_stop","name":"DWIGHT / SAINT JEROME","network":"PVTA","public_transport":"stop_position","ref":"368"},
{"lat":"42.206562","lon":"-72.615974","attribution":"massDOT","bus":"yes","highway":"bus_stop","name":"ESSEX / BEECH","network":"PVTA","public_transport":"stop_position","ref":"392"},
{"lat":"42.205334","lon":"-72.61364","attribution":"massDOT","bus":"yes","highway":"bus_stop","name":"ESSEX / ELM","network":"PVTA","public_transport":"stop_position","ref":"405"},
{"lat":"42.208611","lon":"-72.61972","attribution":"massDOT","bus":"yes","highway":"bus_stop","name":"ESSEX / SYCAMORE","network":"PVTA","public_transport":"stop_position","ref":"380"},
{"lat":"42.195145","lon":"-72.652779","attribution":"massDOT","bus":"yes","highway":"bus_stop","name":"FROST CIRCLE / COLLEGE","network":"PVTA","public_transport":"stop_position","ref":"491"},
{"lat":"42.213116","lon":"-72.627724","attribution":"massDOT","bus":"yes","highway":"bus_stop","name":"HAMPDEN / ARLINGTON","network":"PVTA","public_transport":"stop_position","ref":"362"},
{"lat":"42.213268","lon":"-72.623291","attribution":"massDOT","bus":"yes","highway":"bus_stop","name":"HAMPDEN / NONOTUCK","network":"PVTA","public_transport":"stop_position","ref":"361"},
{"lat":"42.21336","lon":"-72.620941","attribution":"massDOT","bus":"yes","highway":"bus_stop","name":"HAMPDEN / PLEASANT","network":"PVTA","public_transport":"stop_position","ref":"360"},
{"lat":"42.204731","lon":"-72.609833","attribution":"massDOT","bus":"yes","highway":"bus_stop","name":"HIGH / APPLETON","network":"PVTA","public_transport":"stop_position","ref":"412"},
{"lat":"42.202923","lon":"-72.611595","attribution":"massDOT","bus":"yes","highway":"bus_stop","name":"HIGH / CABOT","network":"PVTA","public_transport":"stop_position","ref":"430"},
{"lat":"42.206928","lon":"-72.607658","attribution":"massDOT","bus":"yes","highway":"bus_stop","name":"HIGH / DWIGHT","network":"PVTA","public_transport":"stop_position","ref":"387"},
{"lat":"42.203861","lon":"-72.61068","attribution":"massDOT","bus":"yes","highway":"bus_stop","name":"HIGH / ESSEX","network":"PVTA","public_transport":"stop_position","ref":"419"},
{"lat":"42.199123","lon":"-72.615318","attribution":"massDOT","bus":"yes","highway":"bus_stop","name":"HIGH / FRANKLIN","network":"PVTA","public_transport":"stop_position","ref":"473"},
{"lat":"42.201347","lon":"-72.613167","attribution":"massDOT","bus":"yes","highway":"bus_stop","name":"HIGH / HAMPSHIRE","network":"PVTA","public_transport":"stop_position","ref":"452"},
{"lat":"42.198387","lon":"-72.616035","attribution":"massDOT","bus":"yes","highway":"bus_stop","name":"HIGH / JACKSON","network":"PVTA","public_transport":"stop_position","ref":"479"},
{"lat":"42.200542","lon":"-72.613937","attribution":"massDOT","bus":"yes","highway":"bus_stop","name":"HIGH / SARGEANT","network":"PVTA","public_transport":"stop_position","ref":"455"},
{"lat":"42.205868","lon":"-72.608704","attribution":"massDOT","bus":"yes","highway":"bus_stop","name":"HIGH / SUFFOLK","network":"PVTA","public_transport":"stop_position","ref":"398"},
{"lat":"42.198196","lon":"-72.634216","attribution":"massDOT","bus":"yes","highway":"bus_stop","name":"HILLSIDE / MERKEL","network":"PVTA","public_transport":"stop_position","ref":"476"},
{"lat":"42.195305","lon":"-72.634064","attribution":"massDOT","bus":"yes","highway":"bus_stop","name":"HILLSIDE / WESTFIELD","network":"PVTA","public_transport":"stop_position","ref":"489"},
{"lat":"42.195354","lon":"-72.634178","attribution":"massDOT","bus":"yes","highway":"bus_stop","name":"HILLSIDE / WESTFIELD","network":"PVTA","public_transport":"stop_position","ref":"492"},
{"lat":"42.17461","lon":"-72.636559","attribution":"massDOT","bus":"yes","highway":"bus_stop","name":"HOLY FAMILY / DEVONSHIRE","network":"PVTA","public_transport":"stop_position","ref":"581"},
{"lat":"42.174751","lon":"-72.636627","attribution":"massDOT","bus":"yes","highway":"bus_stop","name":"HOLY FAMILY / DEVONSHIRE","network":"PVTA","public_transport":"stop_position","ref":"580"},
{"lat":"42.178127","lon":"-72.636398","attribution":"massDOT","bus":"yes","highway":"bus_stop","name":"HOLY FAMILY / UNNAMED STREET","network":"PVTA","public_transport":"stop_position","ref":"566"},
{"lat":"42.172516","lon":"-72.642593","attribution":"massDOT","bus":"yes","highway":"bus_stop","name":"HOLYOKE CROSSING DRIVE / HOLYOKE CROSSIN","network":"PVTA","public_transport":"stop_position","ref":"592"},
{"lat":"42.173565","lon":"-72.642036","attribution":"massDOT","bus":"yes","highway":"bus_stop","name":"HOLYOKE CROSSING DRIVE / HOLYOKE CROSSIN","network":"PVTA","public_transport":"stop_position","ref":"589"},
{"lat":"42.167141","lon":"-72.640587","attribution":"massDOT","bus":"yes","highway":"bus_stop","name":"HOLYOKE MALL PARKING LOT DR. / HOLYOKE","network":"PVTA","public_transport":"stop_position","ref":"609"},
{"lat":"42.183561","lon":"-72.6487757","attribution":"massDOT","bus":"yes","highway":"bus_stop","name":"HOMESTEAD / KANE","network":"PVTA","public_transport":"stop_position","ref":"542"},
{"lat":"42.189209","lon":"-72.649788","attribution":"massDOT","bus":"yes","highway":"bus_stop","name":"HOMESTEAD / MEMORIAL","network":"PVTA","public_transport":"stop_position","ref":"520"},
{"lat":"42.185234","lon":"-72.650063","attribution":"massDOT","bus":"yes","highway":"bus_stop","name":"HOMESTEAD / PYNCHON","network":"PVTA","public_transport":"stop_position","ref":"535"},
{"lat":"42.186291","lon":"-72.650574","attribution":"massDOT","bus":"yes","highway":"bus_stop","name":"HOMESTEAD / RAMP","network":"PVTA","public_transport":"stop_position","ref":"533"},
{"lat":"42.192116","lon":"-72.648338","attribution":"massDOT","bus":"yes","highway":"bus_stop","name":"HOMESTEAD / SHEEHAN","network":"PVTA","public_transport":"stop_position","ref":"505"},
{"lat":"42.180363","lon":"-72.647957","attribution":"massDOT","bus":"yes","highway":"bus_stop","name":"HOMESTEAD / UPLAND","network":"PVTA","public_transport":"stop_position","ref":"554"},
{"lat":"42.180405","lon":"-72.648636","attribution":"massDOT","bus":"yes","highway":"bus_stop","name":"HOMESTEAD / UPLAND","network":"PVTA","public_transport":"stop_position","ref":"555"},
{"lat":"42.200298","lon":"-72.628593","attribution":"massDOT","bus":"yes","highway":"bus_stop","name":"HOSPITAL / PARKING LOT","network":"PVTA","public_transport":"stop_position","ref":"458"},
{"lat":"42.200359","lon":"-72.628693","attribution":"massDOT","bus":"yes","highway":"bus_stop","name":"HOSPITAL / PARKING LOT","network":"PVTA","public_transport":"stop_position","ref":"456"},
{"lat":"42.207745","lon":"-72.608322","attribution":"massDOT","bus":"yes","highway":"bus_stop","name":"HTC Gate 2","network":"PVTA","public_transport":"stop_position","ref":"9097"},
{"lat":"42.207916","lon":"-72.608177","attribution":"massDOT","bus":"yes","highway":"bus_stop","name":"HTC Gate 3","network":"PVTA","public_transport":"stop_position","ref":"9096"},
{"lat":"42.208092","lon":"-72.608009","attribution":"massDOT","bus":"yes","highway":"bus_stop","name":"HTC Gate 4","network":"PVTA","public_transport":"stop_position","ref":"9089"},
{"lat":"42.208252","lon":"-72.607849","attribution":"massDOT","bus":"yes","highway":"bus_stop","name":"HTC Gate 5","network":"PVTA","public_transport":"stop_position","ref":"9088"},
{"lat":"42.20845","lon":"-72.607643","attribution":"massDOT","bus":"yes","highway":"bus_stop","name":"HTC Gate 6","network":"PVTA","public_transport":"stop_position","ref":"9087"},
{"lat":"42.208515","lon":"-72.607498","attribution":"massDOT","bus":"yes","highway":"bus_stop","name":"HTC Gate 7","network":"PVTA","public_transport":"stop_position","ref":"9086"},
{"lat":"42.207066","lon":"-72.64624","attribution":"massDOT","bus":"yes","highway":"bus_stop","name":"JARVIS / UNNAMED STREET","network":"PVTA","public_transport":"stop_position","ref":"386"},
{"lat":"42.219898","lon":"-72.639587","attribution":"massDOT","bus":"yes","highway":"bus_stop","name":"Jarvis and Easthampton","network":"PVTA","public_transport":"stop_position","ref":"11011"},
{"lat":"42.183445","lon":"-72.632912","attribution":"massDOT","bus":"yes","highway":"bus_stop","name":"KMART PLAZA DRIVE SOUTH / NORTHAMPTON","network":"PVTA","public_transport":"stop_position","ref":"546"},
{"lat":"42.216099","lon":"-72.619324","attribution":"massDOT","bus":"yes","highway":"bus_stop","name":"LINCOLN / TAYLOR","network":"PVTA","public_transport":"stop_position","ref":"354"},
{"lat":"42.206772","lon":"-72.618874","attribution":"massDOT","bus":"yes","highway":"bus_stop","name":"LINDEN / CABOT","network":"PVTA","public_transport":"stop_position","ref":"389"},
{"lat":"42.207859","lon":"-72.618958","attribution":"massDOT","bus":"yes","highway":"bus_stop","name":"LOCUST / ESSEX","network":"PVTA","public_transport":"stop_position","ref":"384"},
{"lat":"42.173996","lon":"-72.647827","attribution":"massDOT","bus":"yes","highway":"bus_stop","name":"LOWER WESTFIELD / HOMESTEAD","network":"PVTA","public_transport":"stop_position","ref":"584"},
{"lat":"42.174084","lon":"-72.647041","attribution":"massDOT","bus":"yes","highway":"bus_stop","name":"LOWER WESTFIELD / UNKNOWN","network":"PVTA","public_transport":"stop_position","ref":"1904"},
{"lat":"42.174519","lon":"-72.639481","attribution":"massDOT","bus":"yes","highway":"bus_stop","name":"LOWER WESTFIELD / WHITING FARMS","network":"PVTA","public_transport":"stop_position","ref":"583"},
{"lat":"42.206787","lon":"-72.598335","attribution":"massDOT","bus":"yes","highway":"bus_stop","name":"LYMAN / CENTER","network":"PVTA","public_transport":"stop_position","ref":"391"},
{"lat":"42.210846","lon":"-72.608261","attribution":"massDOT","bus":"yes","highway":"bus_stop","name":"LYMAN / ELM","network":"PVTA","public_transport":"stop_position","ref":"370"},
{"lat":"42.209599","lon":"-72.60582","attribution":"massDOT","bus":"yes","highway":"bus_stop","name":"LYMAN / MAPLE","network":"PVTA","public_transport":"stop_position","ref":"377"},
{"lat":"42.207031","lon":"-72.595886","attribution":"massDOT","bus":"yes","highway":"bus_stop","name":"LYMAN / SUMMER","network":"PVTA","public_transport":"stop_position","ref":"388"},
{"lat":"42.202061","lon":"-72.60482","attribution":"massDOT","bus":"yes","highway":"bus_stop","name":"MAIN / APPLETON","network":"PVTA","public_transport":"stop_position","ref":"445"},
{"lat":"42.202404","lon":"-72.60466","attribution":"massDOT","bus":"yes","highway":"bus_stop","name":"MAIN / APPLETON","network":"PVTA","public_transport":"stop_position","ref":"438"},
{"lat":"42.19215","lon":"-72.614929","attribution":"massDOT","bus":"yes","highway":"bus_stop","name":"MAIN / BERKSHIRE","network":"PVTA","public_transport":"stop_position","ref":"508"},
{"lat":"42.200397","lon":"-72.606712","attribution":"massDOT","bus":"yes","highway":"bus_stop","name":"MAIN / CABOT","network":"PVTA","public_transport":"stop_position","ref":"460"},
{"lat":"42.178177","lon":"-72.629715","attribution":"massDOT","bus":"yes","highway":"bus_stop","name":"MAIN / DEAN TECH DRIVE","network":"PVTA","public_transport":"stop_position","ref":"567"},
{"lat":"42.204552","lon":"-72.602982","attribution":"massDOT","bus":"yes","highway":"bus_stop","name":"MAIN / DWIGHT","network":"PVTA","public_transport":"stop_position","ref":"417"},
{"lat":"42.198997","lon":"-72.607979","attribution":"massDOT","bus":"yes","highway":"bus_stop","name":"MAIN / HAMILTON","network":"PVTA","public_transport":"stop_position","ref":"475"},
{"lat":"42.195789","lon":"-72.611206","attribution":"massDOT","bus":"yes","highway":"bus_stop","name":"MAIN / JACKSON","network":"PVTA","public_transport":"stop_position","ref":"493"},
{"lat":"42.171883","lon":"-72.631737","attribution":"massDOT","bus":"yes","highway":"bus_stop","name":"MAIN / JONES FERRY","network":"PVTA","public_transport":"stop_position","ref":"594"},
{"lat":"42.173615","lon":"-72.631264","attribution":"massDOT","bus":"yes","highway":"bus_stop","name":"MAIN / PELTIAH","network":"PVTA","public_transport":"stop_position","ref":"590"},
{"lat":"42.187683","lon":"-72.624237","attribution":"massDOT","bus":"yes","highway":"bus_stop","name":"MAIN / PREW","network":"PVTA","public_transport":"stop_position","ref":"527"},
{"lat":"42.190136","lon":"-72.618561","attribution":"massDOT","bus":"yes","highway":"bus_stop","name":"MAIN / RACE","network":"PVTA","public_transport":"stop_position","ref":"516"},
{"lat":"42.19035","lon":"-72.617523","attribution":"massDOT","bus":"yes","highway":"bus_stop","name":"MAIN / RACE","network":"PVTA","public_transport":"stop_position","ref":"514"},
{"lat":"42.176498","lon":"-72.630241","attribution":"massDOT","bus":"yes","highway":"bus_stop","name":"MAIN / SAINT VINCENT","network":"PVTA","public_transport":"stop_position","ref":"573"},
{"lat":"42.198189","lon":"-72.608757","attribution":"massDOT","bus":"yes","highway":"bus_stop","name":"MAIN / SARGEANT","network":"PVTA","public_transport":"stop_position","ref":"481"},
{"lat":"42.189339","lon":"-72.621849","attribution":"massDOT","bus":"yes","highway":"bus_stop","name":"MAIN / VERNON","network":"PVTA","public_transport":"stop_position","ref":"521"},
{"lat":"42.205196","lon":"-72.610748","attribution":"massDOT","bus":"yes","highway":"bus_stop","name":"MAPLE / APPLETON","network":"PVTA","public_transport":"stop_position","ref":"408"},
{"lat":"42.202919","lon":"-72.612991","attribution":"massDOT","bus":"yes","highway":"bus_stop","name":"MAPLE / CABOT","network":"PVTA","public_transport":"stop_position","ref":"429"},
{"lat":"42.20435","lon":"-72.611549","attribution":"massDOT","bus":"yes","highway":"bus_stop","name":"MAPLE / ESSEX","network":"PVTA","public_transport":"stop_position","ref":"414"},
{"lat":"42.20224","lon":"-72.613663","attribution":"massDOT","bus":"yes","highway":"bus_stop","name":"MAPLE / HAMPSHIRE","network":"PVTA","public_transport":"stop_position","ref":"439"},
{"lat":"42.210274","lon":"-72.605644","attribution":"massDOT","bus":"yes","highway":"bus_stop","name":"MAPLE / SAINT KOLBE","network":"PVTA","public_transport":"stop_position","ref":"374"},
{"lat":"42.200356","lon":"-72.615501","attribution":"massDOT","bus":"yes","highway":"bus_stop","name":"MAPLE / SARGEANT","network":"PVTA","public_transport":"stop_position","ref":"459"},
{"lat":"42.201088","lon":"-72.614784","attribution":"massDOT","bus":"yes","highway":"bus_stop","name":"MAPLE / SARGEANT","network":"PVTA","public_transport":"stop_position","ref":"453"},
{"lat":"42.206524","lon":"-72.60939","attribution":"massDOT","bus":"yes","highway":"bus_stop","name":"MAPLE / SUFFOLK","network":"PVTA","public_transport":"stop_position","ref":"393"},
{"lat":"42.20459","lon":"-72.596382","attribution":"massDOT","bus":"yes","highway":"bus_stop","name":"MOSHER / BRIDGE","network":"PVTA","public_transport":"stop_position","ref":"413"},
{"lat":"42.205395","lon":"-72.600258","attribution":"massDOT","bus":"yes","highway":"bus_stop","name":"MOSHER / WEST","network":"PVTA","public_transport":"stop_position","ref":"406"},
{"lat":"42.197456","lon":"-72.60968","attribution":"massDOT","bus":"yes","highway":"bus_stop","name":"Main and Sargent(Holyoke Tripper)","network":"PVTA","public_transport":"stop_position","ref":"11124"},
{"lat":"42.199501","lon":"-72.616325","attribution":"massDOT","bus":"yes","highway":"bus_stop","name":"Maple and Jackson","network":"PVTA","public_transport":"stop_position","ref":"466"},
{"lat":"42.171665","lon":"-72.634911","attribution":"massDOT","bus":"yes","highway":"bus_stop","name":"Mont Marie","network":"PVTA","public_transport":"stop_position","ref":"5800"},
{"lat":"42.204685","lon":"-72.630745","attribution":"massDOT","bus":"yes","highway":"bus_stop","name":"NORTHAMPTON / COLUMBUS","network":"PVTA","public_transport":"stop_position","ref":"410"},
{"lat":"42.19101","lon":"-72.629654","attribution":"massDOT","bus":"yes","highway":"bus_stop","name":"NORTHAMPTON / ELMWOOD","network":"PVTA","public_transport":"stop_position","ref":"513"},
{"lat":"42.201958","lon":"-72.631088","attribution":"massDOT","bus":"yes","highway":"bus_stop","name":"NORTHAMPTON / FORER","network":"PVTA","public_transport":"stop_position","ref":"441"},
{"lat":"42.202076","lon":"-72.630913","attribution":"massDOT","bus":"yes","highway":"bus_stop","name":"NORTHAMPTON / FORER","network":"PVTA","public_transport":"stop_position","ref":"442"},
{"lat":"42.212429","lon":"-72.6297","attribution":"massDOT","bus":"yes","highway":"bus_stop","name":"NORTHAMPTON / HAMPDEN","network":"PVTA","public_transport":"stop_position","ref":"364"},
{"lat":"42.193851","lon":"-72.629929","attribution":"massDOT","bus":"yes","highway":"bus_stop","name":"NORTHAMPTON / MYRTLE","network":"PVTA","public_transport":"stop_position","ref":"500"},
{"lat":"42.203117","lon":"-72.631012","attribution":"massDOT","bus":"yes","highway":"bus_stop","name":"NORTHAMPTON / PINEHURST","network":"PVTA","public_transport":"stop_position","ref":"426"},
{"lat":"42.186794","lon":"-72.63208","attribution":"massDOT","bus":"yes","highway":"bus_stop","name":"PARKING LOT / WHITING FARMS","network":"PVTA","public_transport":"stop_position","ref":"529"},
{"lat":"42.209518","lon":"-72.620499","attribution":"massDOT","bus":"yes","highway":"bus_stop","name":"PLEASANT / FORESTDALE","network":"PVTA","public_transport":"stop_position","ref":"376"},
{"lat":"42.213028","lon":"-72.620308","attribution":"massDOT","bus":"yes","highway":"bus_stop","name":"PLEASANT / HAMPDEN","network":"PVTA","public_transport":"stop_position","ref":"363"},
{"lat":"42.215889","lon":"-72.620277","attribution":"massDOT","bus":"yes","highway":"bus_stop","name":"PLEASANT / LINCOLN","network":"PVTA","public_transport":"stop_position","ref":"356"},
{"lat":"42.165905","lon":"-72.633591","attribution":"massDOT","bus":"yes","highway":"bus_stop","name":"PROVIDENCE HOSPITAL / PARKING LOT","network":"PVTA","public_transport":"stop_position","ref":"626"},
{"lat":"42.16214","lon":"-72.633186","attribution":"massDOT","bus":"yes","highway":"bus_stop","name":"Riverdale and Brightside Dr.","network":"PVTA","public_transport":"stop_position","ref":"640"},
{"lat":"42.203144","lon":"-72.619026","attribution":"massDOT","bus":"yes","highway":"bus_stop","name":"SARGEANT / BEECH","network":"PVTA","public_transport":"stop_position","ref":"428"},
{"lat":"42.205372","lon":"-72.62883","attribution":"massDOT","bus":"yes","highway":"bus_stop","name":"SARGEANT / CHAPMAN","network":"PVTA","public_transport":"stop_position","ref":"402"},
{"lat":"42.205456","lon":"-72.628441","attribution":"massDOT","bus":"yes","highway":"bus_stop","name":"SARGEANT / CHAPMAN","network":"PVTA","public_transport":"stop_position","ref":"400"},
{"lat":"42.20116","lon":"-72.615501","attribution":"massDOT","bus":"yes","highway":"bus_stop","name":"SARGEANT / CHESTNUT","network":"PVTA","public_transport":"stop_position","ref":"450"},
{"lat":"42.201473","lon":"-72.615944","attribution":"massDOT","bus":"yes","highway":"bus_stop","name":"SARGEANT / CHESTNUT","network":"PVTA","public_transport":"stop_position","ref":"449"},
{"lat":"42.204781","lon":"-72.622192","attribution":"massDOT","bus":"yes","highway":"bus_stop","name":"SARGEANT / LOCUST","network":"PVTA","public_transport":"stop_position","ref":"411"},
{"lat":"42.204941","lon":"-72.62236","attribution":"massDOT","bus":"yes","highway":"bus_stop","name":"SARGEANT / LOCUST","network":"PVTA","public_transport":"stop_position","ref":"409"},
{"lat":"42.205582","lon":"-72.623695","attribution":"massDOT","bus":"yes","highway":"bus_stop","name":"SARGEANT / MAGNOLIA","network":"PVTA","public_transport":"stop_position","ref":"399"},
{"lat":"42.205662","lon":"-72.623665","attribution":"massDOT","bus":"yes","highway":"bus_stop","name":"SARGEANT / MAGNOLIA","network":"PVTA","public_transport":"stop_position","ref":"396"},
{"lat":"42.205273","lon":"-72.630363","attribution":"massDOT","bus":"yes","highway":"bus_stop","name":"SARGEANT / NORTHAMPTON","network":"PVTA","public_transport":"stop_position","ref":"403"},
{"lat":"42.203712","lon":"-72.620239","attribution":"massDOT","bus":"yes","highway":"bus_stop","name":"SARGEANT / OAK","network":"PVTA","public_transport":"stop_position","ref":"421"},
{"lat":"42.203762","lon":"-72.620193","attribution":"massDOT","bus":"yes","highway":"bus_stop","name":"SARGEANT / OAK","network":"PVTA","public_transport":"stop_position","ref":"420"},
{"lat":"42.20565","lon":"-72.625847","attribution":"massDOT","bus":"yes","highway":"bus_stop","name":"SARGEANT / SAINT JEROME","network":"PVTA","public_transport":"stop_position","ref":"397"},
{"lat":"42.205734","lon":"-72.625534","attribution":"massDOT","bus":"yes","highway":"bus_stop","name":"SARGEANT / SAINT JEROME","network":"PVTA","public_transport":"stop_position","ref":"395"},
{"lat":"42.202274","lon":"-72.617378","attribution":"massDOT","bus":"yes","highway":"bus_stop","name":"SARGEANT / WALNUT","network":"PVTA","public_transport":"stop_position","ref":"437"},
{"lat":"42.202389","lon":"-72.617783","attribution":"massDOT","bus":"yes","highway":"bus_stop","name":"SARGEANT / WALNUT","network":"PVTA","public_transport":"stop_position","ref":"435"},
{"lat":"42.199036","lon":"-72.640297","attribution":"massDOT","bus":"yes","highway":"bus_stop","name":"SOLDIERS HOME / FAIRMONT","network":"PVTA","public_transport":"stop_position","ref":"470"},
{"lat":"42.194729","lon":"-72.624199","attribution":"massDOT","bus":"yes","highway":"bus_stop","name":"SOUTH / CHAPIN","network":"PVTA","public_transport":"stop_position","ref":"497"},
{"lat":"42.194782","lon":"-72.626862","attribution":"massDOT","bus":"yes","highway":"bus_stop","name":"SOUTH / HARRISON","network":"PVTA","public_transport":"stop_position","ref":"495"},
{"lat":"42.19482","lon":"-72.625923","attribution":"massDOT","bus":"yes","highway":"bus_stop","name":"SOUTH / HARRISON","network":"PVTA","public_transport":"stop_position","ref":"494"},
{"lat":"42.195679","lon":"-72.62085","attribution":"massDOT","bus":"yes","highway":"bus_stop","name":"SOUTH / SOUTH","network":"PVTA","public_transport":"stop_position","ref":"488"},
{"lat":"42.195534","lon":"-72.621681","attribution":"massDOT","bus":"yes","highway":"bus_stop","name":"SOUTH / SOUTH STREET PLAZA DRIVE","network":"PVTA","public_transport":"stop_position","ref":"490"},
{"lat":"42.19632","lon":"-72.621132","attribution":"massDOT","bus":"yes","highway":"bus_stop","name":"SOUTH STREET PLAZA DRIVE / SOUTH","network":"PVTA","public_transport":"stop_position","ref":"487"},
{"lat":"42.214046","lon":"-72.617805","attribution":"massDOT","bus":"yes","highway":"bus_stop","name":"STOP AND SHOP DR / HAMPDEN","network":"PVTA","public_transport":"stop_position","ref":"359"},
{"lat":"42.196777","lon":"-72.619148","attribution":"massDOT","bus":"yes","highway":"bus_stop","name":"South and Maple","network":"PVTA","public_transport":"stop_position","ref":"485"},
{"lat":"42.178455","lon":"-72.636719","attribution":"massDOT","bus":"yes","highway":"bus_stop","name":"TOKENEKE / HOLY FAMILY","network":"PVTA","public_transport":"stop_position","ref":"564"},
{"lat":"42.178421","lon":"-72.63987","attribution":"massDOT","bus":"yes","highway":"bus_stop","name":"TOKENEKE / WHITING FARMS","network":"PVTA","public_transport":"stop_position","ref":"565"},
{"lat":"42.19109","lon":"-72.652611","attribution":"massDOT","bus":"yes","highway":"bus_stop","name":"The Kids Place at HCC","network":"PVTA","public_transport":"stop_position","ref":"509"},
{"lat":"42.217472","lon":"-72.637894","attribution":"massDOT","bus":"yes","highway":"bus_stop","name":"UNIVERSITY PARK APTS / UNIVERSITY PARK A","network":"PVTA","public_transport":"stop_position","ref":"352"},
{"lat":"42.187145","lon":"-72.630035","attribution":"massDOT","bus":"yes","highway":"bus_stop","name":"US HWY 5 / NORTHAMPTON","network":"PVTA","public_transport":"stop_position","ref":"528"},
{"lat":"42.192738","lon":"-72.629669","attribution":"massDOT","bus":"yes","highway":"bus_stop","name":"US HWY 5 / NORTHAMPTON","network":"PVTA","public_transport":"stop_position","ref":"504"},
{"lat":"42.208748","lon":"-72.607605","attribution":"massDOT","bus":"yes","highway":"bus_stop","name":"Veterans Park","network":"PVTA","public_transport":"stop_position","ref":"379"},
{"lat":"42.210678","lon":"-72.609459","attribution":"massDOT","bus":"yes","highway":"bus_stop","name":"WALNUT / HAMPDEN","network":"PVTA","public_transport":"stop_position","ref":"371"},
{"lat":"42.190868","lon":"-72.640846","attribution":"massDOT","bus":"yes","highway":"bus_stop","name":"WESTFIELD / BRAY PARK","network":"PVTA","public_transport":"stop_position","ref":"511"},
{"lat":"42.190941","lon":"-72.639984","attribution":"massDOT","bus":"yes","highway":"bus_stop","name":"WESTFIELD / BRAY PARK","network":"PVTA","public_transport":"stop_position","ref":"512"},
{"lat":"42.189606","lon":"-72.643288","attribution":"massDOT","bus":"yes","highway":"bus_stop","name":"WESTFIELD / CONNECTICUT","network":"PVTA","public_transport":"stop_position","ref":"519"},
{"lat":"42.189838","lon":"-72.64299","attribution":"massDOT","bus":"yes","highway":"bus_stop","name":"WESTFIELD / CONNECTICUT","network":"PVTA","public_transport":"stop_position","ref":"517"},
{"lat":"42.194389","lon":"-72.635643","attribution":"massDOT","bus":"yes","highway":"bus_stop","name":"WESTFIELD / HITCHCOCK","network":"PVTA","public_transport":"stop_position","ref":"498"},
{"lat":"42.187569","lon":"-72.648903","attribution":"massDOT","bus":"yes","highway":"bus_stop","name":"WESTFIELD / JOHNS","network":"PVTA","public_transport":"stop_position","ref":"526"},
{"lat":"42.187778","lon":"-72.647629","attribution":"massDOT","bus":"yes","highway":"bus_stop","name":"WESTFIELD / MCGRADY","network":"PVTA","public_transport":"stop_position","ref":"525"},
{"lat":"42.188644","lon":"-72.645889","attribution":"massDOT","bus":"yes","highway":"bus_stop","name":"WESTFIELD / MEMORIAL","network":"PVTA","public_transport":"stop_position","ref":"522"},
{"lat":"42.193008","lon":"-72.636894","attribution":"massDOT","bus":"yes","highway":"bus_stop","name":"WESTFIELD / WOODLAND","network":"PVTA","public_transport":"stop_position","ref":"502"},
{"lat":"42.193108","lon":"-72.636703","attribution":"massDOT","bus":"yes","highway":"bus_stop","name":"WESTFIELD / WOODLAND","network":"PVTA","public_transport":"stop_position","ref":"503"},
{"lat":"42.181664","lon":"-72.638542","attribution":"massDOT","bus":"yes","highway":"bus_stop","name":"WHITING FARMS / AUTUMN","network":"PVTA","public_transport":"stop_position","ref":"551"},
{"lat":"42.180233","lon":"-72.639656","attribution":"massDOT","bus":"yes","highway":"bus_stop","name":"WHITING FARMS / FARNUM","network":"PVTA","public_transport":"stop_position","ref":"556"},
{"lat":"42.183437","lon":"-72.637001","attribution":"massDOT","bus":"yes","highway":"bus_stop","name":"WHITING FARMS / GORDON","network":"PVTA","public_transport":"stop_position","ref":"544"},
{"lat":"42.183807","lon":"-72.636894","attribution":"massDOT","bus":"yes","highway":"bus_stop","name":"WHITING FARMS / GORDON","network":"PVTA","public_transport":"stop_position","ref":"541"},
{"lat":"42.180004","lon":"-72.639671","attribution":"massDOT","bus":"yes","highway":"bus_stop","name":"WHITING FARMS / JEANNE","network":"PVTA","public_transport":"stop_position","ref":"557"},
{"lat":"42.163544","lon":"-72.639954","attribution":"massDOT","bus":"yes","highway":"bus_stop","name":"WHITNEY / UNNAMED STREET","network":"PVTA","public_transport":"stop_position","ref":"638"},
{"lat":"42.163635","lon":"-72.640083","attribution":"massDOT","bus":"yes","highway":"bus_stop","name":"WHITNEY / UNNAMED STREET","network":"PVTA","public_transport":"stop_position","ref":"637"},
{"lat":"42.182861","lon":"-72.666031","attribution":"massDOT","bus":"yes","highway":"bus_stop","name":"Westfield & Aprement (Flag stop - signal driver)","network":"PVTA","public_transport":"stop_position","ref":"5053"},
{"lat":"42.17865","lon":"-72.685646","attribution":"massDOT","bus":"yes","highway":"bus_stop","name":"Westfield & Apremont (Flag stop - signal driver)","network":"PVTA","public_transport":"stop_position","ref":"5054"},
{"lat":"42.1945219","lon":"-72.684559","man_made":"communications_tower","name":"WHYN"},
{"lat":"42.2707423","lon":"-72.6171161","amenity":"parking","capacity":"4","fee":"none","name":"Dirt Pull-off"},
{"lat":"42.2691663","lon":"-72.6164965","amenity":"parking","name":"Mt. Tom Parking Lot"},
{"lat":"42.1735698","lon":"-72.6418957","amenity":"restaurant","cuisine":"burger","name":"Red Robin","smoking":"no","wheelchair":"yes"},
{"lat":"42.2047621","lon":"-72.6311523","amenity":"restaurant","cuisine":"chinese","name":"Golden Chopsticks","smoking":"no"},
{"lat":"42.1987283","lon":"-72.6342994","name":"Stop & Go","shop":"convenience"},
{"lat":"42.1858027","lon":"-72.6326165","amenity":"pharmacy","dispensing":"yes","name":"CVS/pharmacy"},
{"lat":"42.1836642","lon":"-72.6332066","name":"Super Stop & Shop","shop":"supermarket"},
{"lat":"42.187798","lon":"-72.6305673","amenity":"restaurant","name":"Denny's"},
{"lat":"42.1872416","lon":"-72.6308463","amenity":"fast_food","name":"Burger King"},
{"lat":"42.2123765","lon":"-72.6290645","name":"Dairy Market","opening_hours":"24/7","shop":"convenience"},
{"lat":"42.1863722","lon":"-72.6512425","amenity":"restaurant","cuisine":"italian","name":"Dino's Pizza","smoking":"no"},
{"lat":"42.2046562","lon":"-72.6311824","name":"Holy Oak Tattoo","shop":"tattoo"},
{"lat":"42.1677372","lon":"-72.6829382","attribution":"USGS 2001 County Boundary","condition":"good","highway":"residential","lanes":"2","massgis:way_id":"170676","maxspeed":"65 mph","name":"US 202 (MA)","oneway":"yes","source:maxspeed":"massgis","width":"15.2","note":"under construction","orig_name":"Ramp-rt 202 To Rt 91 Sb","ramp":"yes","ref":"202","surface":"unpaved","NHS":"yes","hgv":"designated","source:hgv":"MassGIS","service":"parking_aisle","access":"private","bridge":"yes","bicycle":"no","foot":"no","horse":"no","sidewalk":"none","layer":"2","noname":"yes","cycleway":"track","natural":"water","old_railway_operator":"NYNH&H","railway":"rail","waterway":"river","area":"yes","leisure":"park","massgis:ARTICLE97":"1","massgis:ASSESS_ACR":"4.17000000","massgis:ATT_DATE":"2008/11/17","massgis:DCAM_ID":"0","massgis:DEED_ACRES":"4.17000000","massgis:EOEAINVOLV":"5","massgis:FEE_OWNER":"KUZEJA REAL ESTATE TRUST","massgis:FEESYM":"P","massgis:FY_FUNDING":"2006","massgis:LEV_PROT":"P","massgis:MANAGER":"City of Holyoke Parks and Recreation Department","massgis:MANAGR_ABR":"M137PR","massgis:MANAGR_TYP":"M","massgis:OS_DEED_BO":"515480","massgis:OS_DEED_PA":"68","massgis:OS_ID":"137-962","massgis:OWNER_ABRV":"M137","massgis:OWNER_TYPE":"P","massgis:POLY_ID":"962","massgis:PRIM_PURP":"W","massgis:PUB_ACCESS":"N","massgis:SITE_NAME":"KUZEJA FARM","massgis:SOURCE_MAP":"1","massgis:TOWN_ID":"137","owner":"Kuzeja Real Estate Trust","ownership":"private","protected":"perpetuity","historical":"yes","landuse":"retail","massgis:BASE_MAP":"SURVEY","massgis:CAL_DATE_R":"11/3/2005","massgis:COMMENTS":"DCS, PLAN BK 339 PG 72","massgis:PROJ_ID1":"DCS-CR6","start_date":"2005-11-03","massgis:ASSESS_LOT":"ROW","massgis:ASSESS_MAP":"209","massgis:SOURCE_TYP":"O","massgis:GRANTPROG1":"DCS-LWCF","massgis:GRANTTYPE1":"F","massgis:INTSYM":"CR","massgis:OLI_1_INT":"CR","massgis:OLI_1_ORG":"City of Easthampton Conservation Commission","massgis:OLI_1_TYPE":"M","FIXME":"Position was 50 meters south of here where there are houses. Veryify that this open area really is a playground.","massgis:OLI_1_ABRV":"M087CC","massgis:OLI_2_INT":"CR","massgis:OLI_2_ORG":"City of Holyoke Conservation Commission","massgis:OLI_2_TYPE":"M","massgis:ASSESS_BLK":"1","massgis:LOC_ID":"341109_2909825","massgis:GRANTPROG2":"USH","massgis:GRANTTYPE2":"S","massgis:PROJ_ID2":"DCS-USH6","massgis:BOND_ACCT":"2300-8882","massgis:ALT_SITE_N":"BASSETT ROAD CR","massgis:OLI_2_ABRV":"M137CC","boat":"yes","motorboat":"yes","building":"yes","amenity":"restaurant","parking":"multi-storey","shop":"supermarket","admin_level":"8","boundary":"administrative","note:old_railway_operator":"Connecticut River","quantity":"6","sport":"tennis","capacity":"40","fee":"none","barrier":"fence","power":"line","opening_hours":"Mon-Sat 11am-8pm  Sundays 11am-6pm","phone":"(413) 532-5229","smoking":"no","website":"http://www.nicksnestholyoke.com/","wheelchair":"yes","ele":"70","gnis:county_id":"013","gnis:created":"08/27/2002","gnis:feature_id":"601080","gnis:state_id":"25","network":"US:US","route":"road","type":"multipolygon","addr:city":"Southampton","addr:country":"US","addr:county":"Hampshire County","addr:state":"Massachusetts","massgis:fourcolor":"2","massgis:town_id":"325","place":"town","place_name":"West Springfield","population":"27899","is_in":"Massachusetts","nist:fips_code":"25015","nist:state_fips":"25","wikipedia":"en:U.S. Route 5","is_in:state":"MA","border_type":"county","destination":"Long Island Sound","name:es":"Ro Connecticut","name:ru":"","symbol":"http://upload.wikimedia.org/wikipedia/commons/2/28/US_5.svg"},
{}
]
